name,location,edition,restaurant_url,address,lat,lon
Yacob's Kitchen,London,bsy-1-editions,https://deliveroo.co.uk/menu/London/bsy-1-editions/jakobs-kitchen-editions-bsy?day=today&geohash=gcpuyurpq8k1&time=ASAP,"Unit 9, British Wharf, Landmann Way, London, SE145RS",51.4846234,-0.044459279
Shake Shack,London,bsy-1-editions,https://deliveroo.co.uk/menu/London/bsy-1-editions/shake-shack-editions-bsy?day=today&geohash=gcpuyurpq8k1&time=ASAP,"Unit 9, British Wharf, Landmann Way, London, SE145RS",51.4846234,-0.044459279
Poke Shack,London,bsy-1-editions,https://deliveroo.co.uk/menu/London/bsy-1-editions/poke-shack-editions-bsy?day=today&geohash=gcpuyurpq8k1&time=ASAP,"Unit 9, British Wharf, Landmann Way, London, SE145RS",51.4846234,-0.044459279
Dishoom ,London,bsy-2-editions,https://deliveroo.co.uk/menu/London/bsy-2-editions/dishoom-editions-ber?day=today&geohash=gcpuyurpq8k1&time=ASAP,"145 Ormside Street, South Bermondsey, London, SE151TF",51.4831068,-0.0556266
WINGÂ·STOP,London,bsy-2-editions,https://deliveroo.co.uk/menu/London/bsy-2-editions/wingstop-editions-ber?day=today&geohash=gcpuyurpq8k1&time=ASAP,"145 Ormside Street, London, SE151TF",51.4831068,-0.0556266
Remedy Kitchen,London,bsy-1-editions,https://deliveroo.co.uk/menu/London/bsy-1-editions/remedy-kitchen-editions-bsy?day=today&geohash=gcpuyurpq8k1&time=ASAP,"9 British Wharf Landmann Way, London, SE145RS",51.4845,-0.04504
Tao Tao Ju,London,bsy-2-editions,https://deliveroo.co.uk/menu/London/bsy-2-editions/tao-tao-ju-carlisle-lane?day=today&geohash=gcpuyurpq8k1&time=ASAP,"145 Ormside Street, South Bermondsey London,, London, SE151TF",51.4831068,-0.0556266
Coqfighter ,London,honor-oak-park,https://deliveroo.co.uk/menu/London/honor-oak-park/coqfighter-editions-dul?day=today&geohash=gcpuyurpq8k1&time=ASAP,"Units 3 & 4 Dulwich Business Centre, Dulwich, London, SE231AG",51.44282736,-0.048059682
Bronson's Burgers,London,south-bermondsey-area,https://deliveroo.co.uk/menu/London/south-bermondsey-area/bronsons-burgers-ormside-street?day=today&geohash=gcpuyurpq8k1&time=ASAP,"107 Ormside Street, London, SE151TF",51.4831068,-0.0556266
Jude's Ice Cream,London,bsy-1-editions,https://deliveroo.co.uk/menu/London/bsy-1-editions/judes-ice-cream-editions-sur?day=today&geohash=gcpuyurpq8k1&time=ASAP,"Unit 9, British Wharf, Landmann Way, London, SE145RS",51.4846234,-0.044459279
Trip CBD Store ,London,south-bermondsey-area,https://deliveroo.co.uk/menu/London/south-bermondsey-area/trip-cbd-store-peckham?day=today&geohash=gcpuyurpq8k1&time=ASAP,"107-109 Ormside Street, London, SE151TF",51.4831068,-0.0556266
Zing Zing ,London,honor-oak-park,https://deliveroo.co.uk/menu/London/honor-oak-park/zing-zing-editions-dul?geohash=gcpuyurpq8k1,"Units 3 & 4 Dulwich Business Centre Dulwich, London, SE231AG",51.44282736,-0.048059682
Popeyes Louisiana Kitchen,London,culvert-place-editions,https://deliveroo.co.uk/menu/London/culvert-place-editions/popeyes-editions-bcp?day=today&geohash=gcpuu3ywj8vv&time=ASAP,"15A Parkfield Industrial Estate, Culvert Place, Battersea, London, SW115BA",51.47134195,-0.153572684
The Salad Project ,London,culvert-place-editions,https://deliveroo.co.uk/menu/London/culvert-place-editions/the-salad-project-editions-bcp?day=today&geohash=gcpuu3ywj8vv&time=ASAP,"15A Parkfield Industrial Estate, Culvert Place, London, SW115BA",51.47134195,-0.153572684
Bleecker Burger,London,culvert-place-editions,https://deliveroo.co.uk/menu/London/culvert-place-editions/bleecker-editions-bqr?day=today&geohash=gcpuu3ywj8vv&time=ASAP,"Unit 15a Parkfield Industrial Estate, Battersea,, London, SW115BA",51.47134195,-0.153572684
Hare & Tortoise,London,culvert-place-editions,https://deliveroo.co.uk/menu/London/culvert-place-editions/hare-and-tortoise-editions-bcp?day=today&geohash=gcpuu3ywj8vv&time=ASAP,"15a Parkfield Estate, Battersea, London, SW115BA",51.47134195,-0.153572684
Dishoom ,London,culvert-place-editions,https://deliveroo.co.uk/menu/London/culvert-place-editions/dishoom-editions-bcp?day=today&geohash=gcpuu3ywj8vv&time=ASAP,"15a Parkfield Estate, Battersea, London, SW115BA",51.47134195,-0.153572684
Yacob's Kitchen,London,battersea-york-road,https://deliveroo.co.uk/menu/London/battersea-york-road/jakobs-kitchen-editions-byr-new?day=today&geohash=gcpuu3ywj8vv&time=ASAP,"Unit 13-15, Heliport Industrial Estate, Battersea, London, SW113SS",51.46972537,-0.178480919
Maroush,London,queenstown-road,https://deliveroo.co.uk/menu/London/queenstown-road/maroush-battersea?day=today&geohash=gcpuu3ywj8vv&time=ASAP,"Safestore Car Park, Ingate Place, London, SW83NS, London, SW83NS",51.47511444,-0.145202461
Tao Tao Ju,London,culvert-place-editions,https://deliveroo.co.uk/menu/London/culvert-place-editions/tao-tao-ju-editions-bcp?day=today&geohash=gcpuu3ywj8vv&time=ASAP,"15A Parkfield Industrial Estate, Culvert Place, Battersea,, London, SW115BA",51.47134195,-0.153572684
Poke House,London,nine-elms,https://deliveroo.co.uk/menu/London/nine-elms/ahi-poke-editions-cla?day=today&geohash=gcpuu3ywj8vv&time=ASAP,"Poke House Unit 201, Turbine Hall Battersea Power Station, Circus Road South, London,, London, SW118EZ",51.48194793,-0.144768302
Marlowe's Burgers & Fries,London,queenstown-road,https://deliveroo.co.uk/menu/London/queenstown-road/marlowes-editions-bqr?day=today&geohash=gcpuu3ywj8vv&time=ASAP,"Safestore Car Park, Ingate Place, London, SW83NS",51.47511444,-0.145202461
Motu Indian Kitchen,London,battersea-york-road,https://deliveroo.co.uk/menu/London/battersea-york-road/motu-indian-kitchen?day=today&geohash=gcpuu3ywj8vv&time=ASAP,"Unit 13-15, Heliport Industrial Estate, London, SW113SS",51.46972537,-0.178480919
Banh Banh Vietnamese Kitchen,London,wandsworth-editions,https://deliveroo.co.uk/menu/London/wandsworth-editions/banh-banh-editions-wnw?day=today&geohash=gcpuu3ywj8vv&time=ASAP,"271 Merton Road, London, SW185JS",51.44718795,-0.1973911
The Sushi Kitchen,London,battersea-york-road,https://deliveroo.co.uk/menu/London/battersea-york-road/the-sushi-kitchen?day=today&geohash=gcpuu3ywj8vv&time=ASAP,"Unit 13-15, Heliport Industrial Estate, Battersea, London, SW113SS",51.46972537,-0.178480919
Jude's Ice Cream,London,culvert-place-editions,https://deliveroo.co.uk/menu/London/culvert-place-editions/judes-ice-cream-bcp?day=today&geohash=gcpuu3ywj8vv&time=ASAP,"Poke House Unit 201, Turbine Hall Battersea Power Station, Circus Road South, London,, London, SW118EZ",51.48194793,-0.144768302
Mindful Chef,London,battersea-york-road,https://deliveroo.co.uk/menu/London/battersea-york-road/mindful-chef-editions-byr?day=today&geohash=gcpuu3ywj8vv&time=ASAP,"Unit 13-15 Heliport industrial Estate, Battersea, London, SW113SS",51.46972537,-0.178480919
Ben & Jerry's Store,London,battersea-york-road,https://deliveroo.co.uk/menu/London/battersea-york-road/ben-and-jerrys-store-editions-cla?day=today&geohash=gcpuu3ywj8vv&time=ASAP,"Unit 13-15 Heliport industrial Estate, Battersea, London, SW113SS",51.46972537,-0.178480919
TRIP CBD Store,London,battersea-york-road,https://deliveroo.co.uk/menu/London/battersea-york-road/trip-cbd-store-editions-byr?day=today&geohash=gcpuu3ywj8vv&time=ASAP,"Unit 13-15, Heliport Industrial Estate, Battersea, London, SW113SS",51.46972537,-0.178480919
Remeo Gelato,London,battersea-york-road,https://deliveroo.co.uk/menu/London/battersea-york-road/remeo-gelato-editions-byr?day=today&geohash=gcpuu3ywj8vv&time=ASAP,"Unit 13-15, Heliport Industrial Estate, Battersea, London, SW113SS",51.46972537,-0.178480919
The Poke Kitchen,London,battersea-york-road,https://deliveroo.co.uk/menu/London/battersea-york-road/the-poke-kitchen?day=today&geohash=gcpuu3ywj8vv&time=ASAP,"Unit 13-15, Heliport Industrial Estate, Battersea, London, SW113SS",51.46972537,-0.178480919
Yuma Sushi,London,wandsworth-editions,https://deliveroo.co.uk/menu/London/wandsworth-editions/yuma-sushi-editions-wan?day=today&geohash=gcpuu3ywj8vv&time=1645,"Unit 4, 271, Merton Road, London, SW185JS",51.44716666,-0.198205539
Tao Village Dim Sum,London,battersea-york-road,https://deliveroo.co.uk/menu/London/battersea-york-road/tao-village-dim-sum-editions-byr?geohash=gcpuu3ywj8vv,"Unit 13-15 Heliport industrial Estate, Battersea, London, London, SW113SS",51.46972537,-0.178480919
Forketta,London,battersea-york-road,https://deliveroo.co.uk/menu/London/battersea-york-road/barilla-editions-byr?geohash=gcpuu3ywj8vv,"Unit 13-15 Heliport industrial Estate, Battersea, London, SW113SS",51.46972537,-0.178480919
CANNACOFFEE Store,London,battersea-york-road,https://deliveroo.co.uk/menu/London/battersea-york-road/hashtag-editions-byr?geohash=gcpuu3ywj8vv,"Unit 13-15 Heliport industrial Estate, Battersea, London, SW113SS",51.46972537,-0.178480919
YUN Bento,London,battersea-york-road,https://deliveroo.co.uk/menu/London/battersea-york-road/yun-bento-editions-byr?geohash=gcpuu3ywj8vv,"Unit 13-15 Heliport industrial Estate, Battersea, London, SW113SS",51.46972537,-0.178480919
Popeyes Louisiana Kitchen,London,honor-oak-park,https://deliveroo.co.uk/menu/London/honor-oak-park/popeyes-editions-dul?day=today&geohash=gcpuwvtr0mk9&time=ASAP,"Units 3 & 4 Dulwich Business Centre, Dulwich, London, SE231AG",51.44282736,-0.048059682
Dishoom ,London,honor-oak-park,https://deliveroo.co.uk/menu/London/honor-oak-park/dishoom-editions-dul?day=today&geohash=gcpuwvtr0mk9&time=ASAP,"Units 3 & 4 Dulwich Business Centre, London, SE231AG",51.44282736,-0.048059682
Bleecker Burger,London,bsy-1-editions,https://deliveroo.co.uk/menu/London/bsy-1-editions/bleecker-editions-bsy?day=today&geohash=gcpuwvtr0mk9&time=1630,"Unit 9, British Wharf, Landmann Way, London, SE145RS",51.4846234,-0.044459279
Popeyes Louisiana Kitchen,London,whitechapel-editions,https://deliveroo.co.uk/menu/London/whitechapel-editions/popeyes-editions-wme?day=today&geohash=gcpvpqp8znt2&time=ASAP,"10 Assembly Passage, London, E14UT",51.5205841,-0.0516174
Yacob's Kitchen,London,whitechapel-editions,https://deliveroo.co.uk/menu/London/whitechapel-editions/jakobs-kitchen-editions-whi?day=today&geohash=gcpvpqp8znt2&time=ASAP,"10 Assembly Passage, London, E14UT",51.5205841,-0.0516174
Dishoom,London,canning-town-editions,https://deliveroo.co.uk/menu/London/canning-town-editions/dishoom-editions-blw?day=today&geohash=gcpvpqp8znt2&time=ASAP,"Unit 3&4, Galaxy, Crescent Court Business Centre, Canning Town, London, E164TG",51.52342482,1.34E-05
Remedy Kitchen,London,whitechapel-editions,https://deliveroo.co.uk/menu/London/whitechapel-editions/remedy-kitchen-editions-whi?day=today&geohash=gcpvpqp8znt2&time=ASAP,"10 Assembly Passage, London, E14UT",51.5205841,-0.0516174
So Noodle,London,whitechapel-editions,https://deliveroo.co.uk/menu/London/whitechapel-editions/shu-la-la-editions-whi?day=today&geohash=gcpvpqp8znt2&time=ASAP,"10 Assembly Passage, London, E14UT",51.5205841,-0.0516174
Hare & Tortoise ,London,whitechapel-editions,https://deliveroo.co.uk/menu/London/whitechapel-editions/hare-and-tortoise-editions-wme?day=today&geohash=gcpvpqp8znt2&time=ASAP,"10 Assembly Passage, London, E14UT",51.5205841,-0.0516174
Poke Shack ,London,whitechapel-editions,https://deliveroo.co.uk/menu/London/whitechapel-editions/poke-shack-editions-whi?day=today&geohash=gcpvpqp8znt2&time=ASAP,"61 Assembly Passage, London, E14UT",51.5205841,-0.0516174
Tao Tao Ju,London,canning-town-editions,https://deliveroo.co.uk/menu/London/canning-town-editions/tao-tao-ju-editions-can?day=today&geohash=gcpvpqp8znt2&time=ASAP,"Unit 3&4, Galaxy, Crescent Court Business Centre, London, E164TG",51.52342482,1.34E-05
Bronsonâ€™s Burgers,London,canary-wharf,https://deliveroo.co.uk/menu/London/canary-wharf/bronsons-burgers-canary-wharf?day=today&geohash=gcpvpqp8znt2&time=ASAP,"Kitchen 1, Jacuna Kitchens, 105 Cannon Drive, London, E144AS",51.50702767,-0.026336476
Motu Indian Kitchen,London,canning-town-editions,https://deliveroo.co.uk/menu/London/canning-town-editions/motu-indian-kitchen-blw?day=today&geohash=gcpvpqp8znt2&time=ASAP,"Prestage Way Car Park, Editions, Blackwall, London, E149QE",51.5086128,-0.006668344
WINGÂ·STOP,London,canning-town-editions,https://deliveroo.co.uk/menu/London/canning-town-editions/wingstop-editions-blw?day=today&geohash=gcpvpqp8znt2&time=ASAP,"Unit 3&4, Galaxy, Crescent Court Business Centre, Canning Town, London, E164TG",51.52342482,1.34E-05
Zzetta,London,whitechapel-editions,https://deliveroo.co.uk/menu/London/whitechapel-editions/zzettta-editions-whi?day=today&geohash=gcpvpqp8znt2&time=ASAP,"10 Assembly Passage, London, E14UT",51.5205841,-0.0516174
TRIP CBD Store,London,whitechapel-editions,https://deliveroo.co.uk/menu/London/whitechapel-editions/trip-cbd-store-editions-wme?day=today&geohash=gcpvpqp8znt2&time=ASAP,"61 Assembly Passage, Whitechapel, London, E14UT",51.5205841,-0.0516174
Remeo Gelato,London,whitechapel-editions,https://deliveroo.co.uk/menu/London/whitechapel-editions/remeo-gelato-editions-wme?day=today&geohash=gcpvpqp8znt2&time=ASAP,"10 Assembly Passage, Whitechapel, London, E14UT",51.5205841,-0.0516174
Patri Artisan Street Food and Drinks,London,caledonian-road-and-barnsbury,https://deliveroo.co.uk/menu/London/caledonian-road-and-barnsbury/chai-naasto-hammersmith?day=today&geohash=gcpvpqp8znt2&time=ASAP,"Unit 4, 149 Roman Way, London, London, N78XH",51.54339937,-0.114732291
Biryaniwalla,London,caledonian-road-and-barnsbury,https://deliveroo.co.uk/menu/London/caledonian-road-and-barnsbury/biryaniwalla?day=today&geohash=gcpvpqp8znt2&time=ASAP,"149 Roman Way, Unit 4,, London, N78XH",51.54339937,-0.114732291
Ice Cream Store,London,whitechapel-editions,https://deliveroo.co.uk/menu/London/whitechapel-editions/ics-editions-wme-new?day=today&geohash=gcpvpqp8znt2&time=ASAP,"Deliveroo Editions, 10 Assembly Passage, London, E14UT",51.5205841,-0.0516174
Jude's Ice Cream,London,canning-town-editions,https://deliveroo.co.uk/menu/London/canning-town-editions/judes-ice-cream-editions-blw?day=today&geohash=gcpvpqp8znt2&time=ASAP,"Prestage Way Car Park, Editions, Blackwall, London, E149QE",51.5086128,-0.006668344
Rice Bowl Company,London,caledonian-road-and-barnsbury,https://deliveroo.co.uk/menu/London/caledonian-road-and-barnsbury/rum-and-rice-hammersmith-grove?day=today&geohash=gcpvpqp8znt2&time=ASAP,"149 Roman Way, Unit 4, London, N78XH",51.54339937,-0.114732291
Ben & Jerry's Store,London,whitechapel-editions,https://deliveroo.co.uk/menu/London/whitechapel-editions/ben-and-jerrys-store-editions-wme?day=today&geohash=gcpvpqp8znt2&time=ASAP,"Deliveroo Editions, 10 Assembly Passage, London, E14UT",51.5205841,-0.0516174
Ice Cream Store,London,canning-town-editions,https://deliveroo.co.uk/menu/London/canning-town-editions/ics-editions-blw?day=today&geohash=gcpvpqp8znt2&time=ASAP,"Unit 3&4, Galaxy, Crescent Court Business Centre, Canning Town, London, E164TG",51.52342482,1.34E-05
Mama Li ,London,canning-town-editions,https://deliveroo.co.uk/menu/London/canning-town-editions/mama-li-express?day=tomorrow&geohash=gcpvpqp8znt2&time=1230,"Unit 3&4, Galaxy, Crescent Court Business Centre, London, E164TG",51.52342482,1.34E-05
YUN Restaurant,London,canning-town-editions,https://deliveroo.co.uk/menu/London/canning-town-editions/yun-editions-blw?geohash=gcpvpqp8znt2,"Unit 3&4, Galaxy, Crescent Court Business Centre, Canning Town, London, E164TG",51.52342482,1.34E-05
YUN Bento,London,canning-town-editions,https://deliveroo.co.uk/menu/London/canning-town-editions/yun-chinese-editions-blw-canary-wharf?geohash=gcpvpqp8znt2,"Unit 3&4, Galaxy, Crescent Court Business Centre, Canning Town, London, E164TG",51.52342482,1.34E-05
Beer and Fried Chicken Co.,London,canning-town-editions,https://deliveroo.co.uk/menu/London/canning-town-editions/b-and-fried-chicken-co-editions-blw?geohash=gcpvpqp8znt2,"Unit 3&4, Galaxy, Crescent Court Business Centre, Canning Town, London, E164TG",51.52342482,1.34E-05
Remedy Kitchen,London,battersea-york-road,https://deliveroo.co.uk/menu/London/battersea-york-road/remedy-kitchen-editions-byr?day=today&geohash=gcpugcwkyb25&time=ASAP,"Unit 13-15, Heliport Industrial Estate, Battersea, London, SW113SS",51.46972537,-0.178480919
Zing Zing,London,wandsworth-editions,https://deliveroo.co.uk/menu/London/wandsworth-editions/zing-zing-editions-wnw?day=today&geohash=gcpugcwkyb25&time=1745,"Unit 4, 271 Merton Road, London, SW185JS",51.44716666,-0.198205539
Rajah Rowing Indian Kitchen,London,wandsworth-editions,https://deliveroo.co.uk/menu/London/wandsworth-editions/rajah-rowing-editions-wnw?day=today&geohash=gcpugcwkyb25&time=1645,"Unit 4, 271, Merton Road, London, SW185JS",51.44716666,-0.198205539
Bronson's Burgers,London,south-norbury,https://deliveroo.co.uk/menu/London/south-norbury/bronsons-burgers-norbury?day=today&geohash=gcpumm6sc317&time=ASAP,"Pod 19 Unit 5-7 Norbury trading, London, SW164RW",51.4085578,-0.1211643
TRIP CBD Store,London,beddington-east,https://deliveroo.co.uk/menu/London/beddington-east/trip-cbd-store-croydon?day=today&geohash=gcpumm6sc317&time=ASAP,"106 Beddington Lane, London, CR04TB",51.37320421,-0.131343583
Pho,London,honor-oak-park,https://deliveroo.co.uk/menu/London/honor-oak-park/pho-editions-dul?day=today&geohash=gcpumm6sc317&time=1645,"Units 3 & 4 Dulwich Business Centre, Dulwich, London, SE231AG",51.44282736,-0.048059682
WINGÂ·STOP,London,wandsworth-editions,https://deliveroo.co.uk/menu/London/wandsworth-editions/wingstop-wandsworth?day=today&geohash=gcpusu6unsdd&time=ASAP,"Unit 4, 271 Merton Road, London, SW185JS",51.44716666,-0.198205539
Dishoom,London,wandsworth-editions,https://deliveroo.co.uk/menu/London/wandsworth-editions/dishoom-editions-wnw?day=today&geohash=gcpuemxvwjnx&time=ASAP,"Unit 4, 271 Merton Road Industrial Estate, Wandsworth, London, SW185JS",51.44716666,-0.198205539
Tao Tao Ju ,London,wandsworth-editions,https://deliveroo.co.uk/menu/London/wandsworth-editions/tao-tao-ju-editions-wnw?day=today&geohash=gcpuemxvwjnx&time=ASAP,"Unit 4, 271 Merton Road, Southfields, London, SW185JS",51.44716666,-0.198205539
Popeyes Louisiana Kitchen,London,maida-vale-editions,https://deliveroo.co.uk/menu/London/maida-vale-editions/popeyes-editions-mdv?day=today&geohash=gcpv4ezcruym&time=ASAP,"8, Mitre Way, Mitre Bridge Industrial Estate, W10 6AU, London, W106AU",51.5245604,-0.2304484
Dishoom,London,maida-vale-editions,https://deliveroo.co.uk/menu/London/maida-vale-editions/dishoom-kings-cross?day=today&geohash=gcpv4ezcruym&time=ASAP,"Deliveroo Editions, Unit 8 Mitre Way, Mitre Bridge Industrial Estate, London Borough of Hammersmith and Fulham, London, London, W106AU",51.5245604,-0.2304484
Kanada-Ya Ramen Bar,London,maida-vale-editions,https://deliveroo.co.uk/menu/London/maida-vale-editions/kanada-ya-editions-mdv?day=today&geohash=gcpv4ezcruym&time=ASAP,"Unit 8, Mitre Way, Mitre Way Industrial Area, London, W106AU",51.5245604,-0.2304484
KKINI Korean Restaurant,London,maida-vale-editions,https://deliveroo.co.uk/menu/London/maida-vale-editions/kkini-editions-mdv?day=today&geohash=gcpv4ezcruym&time=ASAP,"Maida Vale Deliveroo Editions site, 8, Mitre Way, Mitre Bridge Industrial Estate, London Borough of Hammersmith and Fulham, London, Greater London, England, W10 6AU, United Kingdom, London, W106AU, London, W106AU",51.5245604,-0.2304484
Remedy Kitchen,London,acton-editions,https://deliveroo.co.uk/menu/London/acton-editions/remedy-kitchen-editions-act?day=today&geohash=gcpv4ezcruym&time=ASAP,"Unit 33, Acton Park Industrial Estate, London, W37QE",51.50484772,-0.257361141
Tao Tao Ju ,London,acton-editions,https://deliveroo.co.uk/menu/London/acton-editions/tao-tao-ju-editions-acton?day=today&geohash=gcpv4ezcruym&time=ASAP,"Unit 33, Acton Park Industrial Estate, London, W37QE",51.50484772,-0.257361141
WINGÂ·STOP,London,acton-editions,https://deliveroo.co.uk/menu/London/acton-editions/wingstop-editions-act?day=today&geohash=gcpv4ezcruym&time=ASAP,"Unit 33, Acton Park Industrial Estate, London, W37QE",51.50484772,-0.257361141
Yacob's Kitchen ,London,acton-editions,https://deliveroo.co.uk/menu/London/acton-editions/jacobs-kitchen-editions-act?day=today&geohash=gcpv4ezcruym&time=ASAP,"Unit 33, Acton Park Industrial Estate, W3 7QE, London, W37QE",51.50484772,-0.257361141
Rice Bowl Company,London,acton-editions,https://deliveroo.co.uk/menu/London/acton-editions/rum-and-rice?day=today&geohash=gcpv4ezcruym&time=ASAP,"Unit 33, Acton Park Industrial Estate,, London, W37QE",51.50484772,-0.257361141
Bronson's Burgers ,London,brent-cross-editions,https://deliveroo.co.uk/menu/London/brent-cross-editions/bronsons-burgers-editions-brc?day=today&geohash=gcpv4ezcruym&time=ASAP,"2 Phoenix Industrial Estate Apsley Way, London, NW27LN",51.56704439,-0.239066055
Patri Artisan Street Food and Drinks,London,acton-editions,https://deliveroo.co.uk/menu/London/acton-editions/patri-artisan-street-food-and-drinks?day=today&geohash=gcpv4ezcruym&time=ASAP,"Unit 33, Acton Park Industrial Estate, London,, London, W37QE",51.50484772,-0.257361141
Mindful Chef,London,maida-vale-editions,https://deliveroo.co.uk/menu/London/maida-vale-editions/mindful-chef-editions-mdv?day=today&geohash=gcpv4ezcruym&time=ASAP,"Unit 8, Mitre Way, White City, London, W106AU",51.5245604,-0.2304484
TRIP CBD Store,London,acton-editions,https://deliveroo.co.uk/menu/London/acton-editions/trip-cbd-store-editions-act?day=today&geohash=gcpv4ezcruym&time=ASAP,"Unit 33, Acton Park Industrial Estate, London, W37QE",51.50484772,-0.257361141
Biryaniwalla by Patri,London,hammersmith,https://deliveroo.co.uk/menu/London/hammersmith/biryaniwalla-ealing?day=today&geohash=gcpv4ezcruym&time=ASAP,"103 Hammersmith Grove, London, London, W60NQ",51.4978513,-0.2276068
Bleecker Burger,London,maida-vale-editions,https://deliveroo.co.uk/menu/London/maida-vale-editions/bleecker-editions-mv?day=today&geohash=gcpv4ezcruym&time=1615,"Deliveroo Editions, Unit 8 Mitre Way, Mitre Bridge Industrial Estate, London Borough of Hammersmith and Fulham,, London, W106AU",51.5245604,-0.2304484
Tao Tao Ju,London,brent-cross-editions,https://deliveroo.co.uk/menu/London/brent-cross-editions/tao-tao-ju-editions-brc?day=today&geohash=gcpv4ezcruym&time=1745,"Phoenix Park, Aspley Way, Unit 2, London, NW27LN",51.56704439,-0.239066055
YUN Bento,London,maida-vale-editions,https://deliveroo.co.uk/menu/London/maida-vale-editions/yun-bento-editions-mdv?geohash=gcpv4ezcruym,"Unit 8, Mitre Way, White City, London, W106AU",51.5245604,-0.2304484
Tao Village Dim Sum,London,maida-vale-editions,https://deliveroo.co.uk/menu/London/maida-vale-editions/tao-village-dim-sum-editions-mdv?geohash=gcpv4ezcruym,"8 Mitre Way, London, W106AU",51.5245604,-0.2304484
Dishoom,London,caledonian-road-and-barnsbury,https://deliveroo.co.uk/menu/London/caledonian-road-and-barnsbury/dishoom-editions-isl?day=today&geohash=gcpvjrhmqd3y&time=ASAP,"149 Roman Way, London, N78XH",51.3731458,-0.1069457
Bronson's Burgers,London,kentish-town,https://deliveroo.co.uk/menu/London/kentish-town/bronsons-burgers-kentish-town?day=today&geohash=gcpvjrhmqd3y&time=ASAP,"Regis Rd, London NW5 3EG, United Kingdom, London, NW53EW",51.55010716,-0.143632771
Poke Shack,London,hornsey-station,https://deliveroo.co.uk/menu/London/hornsey-station/poke-shack-editions-cre?day=today&geohash=gcpvjrhmqd3y&time=ASAP,"Unit 21, Cranford Way, London, N89DG",51.5830431,-0.110714
Tao Tao Ju ,London,whitechapel-editions,https://deliveroo.co.uk/menu/London/whitechapel-editions/tao-tao-ju-editions-whi?day=today&geohash=gcpvjrhmqd3y&time=ASAP,"10 Assembly Passage, London, E14UT",51.5205841,-0.0516174
Maroush,London,hornsey-station,https://deliveroo.co.uk/menu/London/hornsey-station/maroush-editions-cre?day=today&geohash=gcpvjrhmqd3y&time=ASAP,"21 Cranford Way, London, N89DG",51.5830431,-0.110714
Ben & Jerry's Store,London,caledonian-road-and-barnsbury,https://deliveroo.co.uk/menu/London/caledonian-road-and-barnsbury/ben-and-jerrys-store-editions-isl?day=today&geohash=gcpvjrhmqd3y&time=ASAP,"Unit 4, 149 Roman Way, Islington, London, N78XH",51.3731458,-0.1069457
Mindful Chef,London,hornsey-station,https://deliveroo.co.uk/menu/London/hornsey-station/mindful-chef-editions-cre?day=today&geohash=gcpvjrhmqd3y&time=ASAP,"21 Cranford Way London, London, N89DG",51.5830431,-0.110714
Jude's Ice Cream,London,whitechapel-editions,https://deliveroo.co.uk/menu/London/whitechapel-editions/judes-ice-cream-editions-wme-new?day=today&geohash=gcpvjrhmqd3y&time=ASAP,"10 Assembly Passage, London, E14UT",51.5205841,-0.0516174
Pho,London,hornsey-station,https://deliveroo.co.uk/menu/London/hornsey-station/pho-editions-cre?day=today&geohash=gcpvjrhmqd3y&time=1645,"Unit 21 Cranford Way, London, N89DG",51.5830431,-0.110714
Motu Indian Kitchen,London,whitechapel-editions,https://deliveroo.co.uk/menu/London/whitechapel-editions/motu-editions-wme?day=today&geohash=gcpvjrhmqd3y&time=1745,"16 Assembly Passage, London, E14UT",51.5205841,-0.0516174
Dishoom,London,whitechapel-editions,https://deliveroo.co.uk/menu/London/whitechapel-editions/dishoom-shoreditch?day=today&geohash=gcpvnffqn934&time=ASAP,"10 Assembly Passage, Whitechapel, London, E14UT",51.5205841,-0.0516174
Poke Shack,London,acton-editions,https://deliveroo.co.uk/menu/London/acton-editions/the-poke-shack-editions-act?day=today&geohash=gcpv4073pfnr&time=ASAP,"Unit 33, Acton Park Industrial Estate, London, W37QE",51.50484772,-0.257361141
Dishoom,London,acton-editions,https://deliveroo.co.uk/menu/London/acton-editions/dishoom-editions-act?day=today&geohash=gcpv4073pfnr&time=ASAP,"Unit 33, Acton Park Industrial Estate, London, W37QE",51.50484772,-0.257361141
Mindful Chef,London,acton-editions,https://deliveroo.co.uk/menu/London/acton-editions/mindful-chef-editions-act?day=today&geohash=gcpv4073pfnr&time=ASAP,"Unit 33, Acton Park Industrial Estate, London, W37QE",51.50484772,-0.257361141
Pizza Paradiso ,London,swiss-cottage,https://deliveroo.co.uk/menu/London/swiss-cottage/pizza-paradiso-new-college-parade?geohash=gcpvhp0bd462,"13 New College Parade, London, NW35EP",51.5454314,-0.1771143
Jude's Ice Cream,London,caledonian-road-and-barnsbury,https://deliveroo.co.uk/menu/London/caledonian-road-and-barnsbury/judes-ice-cream-editions-isl?geohash=gcpvhvg8xzt0,"Unit 4, 149 Roman Way, London, N78XH",51.3731458,-0.1069457
The Good Earth,London,maida-vale-editions,https://deliveroo.co.uk/menu/London/maida-vale-editions/the-good-earth-editions-bel?geohash=gcpv4dretwn2,"Deliveroo Editions, Unit 8 Mitre Way, Mitre Bridge Industrial Estate, London Borough of Hammersmith and Fulham, London, London, W106AU, London, W106AU",51.5245604,-0.2304484
WINGÂ·STOP,London,brent-cross-editions,https://deliveroo.co.uk/menu/London/brent-cross-editions/wingstop-editions-brc?day=today&geohash=gcpv6ed34vp4&time=ASAP,"Pheonix Park, Apsley Way, Unit 2, London, NW27LN",51.56714327,-0.238109253
Mindful Chef ,London,brent-cross-editions,https://deliveroo.co.uk/menu/London/brent-cross-editions/mindful-chef-editions-brc?day=today&geohash=gcpv6ed34vp4&time=ASAP,"Phoenix Park, Apsley Way, Unit 2, London, NW27LN",51.56714327,-0.238109253
TRIP CBD Store,London,west-hendon,https://deliveroo.co.uk/menu/London/west-hendon/trip-cbd-store-colindale?day=today&geohash=gcpv6ed34vp4&time=ASAP,"Knightsbridge House, Hool Close, London, NW98XG",51.58189832,-0.259056358
Poke Fuzion,Wigan,sankey,https://deliveroo.co.uk/menu/Wigan/sankey/poke-fuzion-warrington?day=today&geohash=gcqpexr9thzp&time=ASAP,"56 Warrington Road, Wigan, WA52JP",53.53852945,-2.651652675
Pasta Evangelists,Manchester,sale,https://deliveroo.co.uk/menu/Manchester/sale/pasta-evangelists-editions-sal?day=today&geohash=gcqrg7xdxvft&time=ASAP,"113 Hope Rd, Sale, Manchester, M333YA",53.41813943,-2.324649302
The Athenian,Manchester,editions-ordsall,https://deliveroo.co.uk/menu/Manchester/editions-ordsall/the-athenian-editions-sal?day=today&geohash=gcqrg7xdxvft&time=ASAP,"Unit 10, Foundry Business Park, Ordsall Lane, Salford, Manchester, M53AN",53.46888407,-2.276106101
Luxford Burgers,Manchester,editions-ordsall,https://deliveroo.co.uk/menu/Manchester/editions-ordsall/luxford-burgers-editions-man?day=today&geohash=gcqrg7xdxvft&time=ASAP,"Unit 10, Foundry Business Park, Ordsall Lane, Salford, Manchester, M53AN",53.46888407,-2.276106101
Nomi Katsu ðŸ‡¯ðŸ‡µ,Manchester,editions-ordsall,https://deliveroo.co.uk/menu/Manchester/editions-ordsall/nomi-katsu-editions-sal?day=today&geohash=gcqrg7xdxvft&time=ASAP,"Salford Editions Unit 10, Manchester,Foundry Business Park, Ordsall Lane, Salford, Manchester, M53AN",53.46888407,-2.276106101
Poke Fuzion by ZUMU,Manchester,editions-ordsall,https://deliveroo.co.uk/menu/Manchester/editions-ordsall/poke-fuzion-uk?day=today&geohash=gcqrg7xdxvft&time=ASAP,"Salford Editions Unit 10, Manchester, Manchester, M53AN",53.46888407,-2.276106101
Sabor - Latin American,Manchester,editions-ordsall,https://deliveroo.co.uk/menu/Manchester/editions-ordsall/sabor-editions-man?day=today&geohash=gcqrg7xdxvft&time=ASAP,"Unit 10, Foundry Business Park, Ordsall Lane, Salford, Manchester, M53AN",53.46888407,-2.276106101
Bulked Loaded Fries,Manchester,editions-ordsall,https://deliveroo.co.uk/menu/Manchester/editions-ordsall/bulked-editions-man?day=today&geohash=gcqrg7xdxvft&time=ASAP,"Unit 10, Foundry Business Park, Ordsall Lane, Salford, Manchester, M53AN",53.46888407,-2.276106101
The Athenian,Manchester,editions-ordsall,https://deliveroo.co.uk/menu/Manchester/editions-ordsall/the-athenian-plant-based-editions-sal?day=today&geohash=gcqrg7xdxvft&time=ASAP,"Unit 10, Foundry Business Park, Ordsall Lane, Salford, Manchester, M53AN",53.46888407,-2.276106101
Fuji Bento,Manchester,editions-ordsall,https://deliveroo.co.uk/menu/Manchester/editions-ordsall/karate-kid-bento-editions-manchester?day=today&geohash=gcqrg7xdxvft&time=ASAP,"Salford Editions Unit 10, Manchester,Foundry Business Park, Ordsall Lane, Salford, Manchester, M53AN",53.46888407,-2.276106101
KYN Pan Asian by ZUMU,Manchester,editions-ordsall,https://deliveroo.co.uk/menu/Manchester/editions-ordsall/kyn-editions-sal?day=today&geohash=gcqrg7xdxvft&time=ASAP,"Salford Editions Unit 10, Manchester, Manchester, M53AN",53.46888407,-2.276106101
TRIP CBD Store,Manchester,editions-ordsall,https://deliveroo.co.uk/menu/Manchester/editions-ordsall/trip-cbd-store-editions-sal?day=today&geohash=gcqrg7xdxvft&time=ASAP,"Unit 10, Foundry Business Park, Ordsall Lane, Salford, Manchester, M53AN",53.46888407,-2.276106101
Wawin Vegan Chinese,Manchester,editions-ordsall,https://deliveroo.co.uk/menu/Manchester/editions-ordsall/wawin-vegan-chinese-manchester?day=today&geohash=gcqrg7xdxvft&time=1645,"Unit 10, Foundry Business Park, Ordsall Lane, Salford, Manchester,, Manchester, M53AN",53.46888407,-2.276106101
Proove Pizza,Manchester,editions-ordsall,https://deliveroo.co.uk/menu/Manchester/editions-ordsall/proove-editions-sal?day=today&geohash=gcqrg7xdxvft&time=1645,"Salford Editions Unit 10, Manchester, Manchester, M53AN",53.46888407,-2.276106101
Lower East Side New York Style Pizza,Manchester,editions-ordsall,https://deliveroo.co.uk/menu/Manchester/editions-ordsall/lower-east-side-editions-sal?day=today&geohash=gcqrg7xdxvft&time=1645,"Unit 10, Foundry Business Park, Ordsall Lane, Salford, Manchester, M53AN",53.46888407,-2.276106101
PROOVegan,Manchester,editions-ordsall,https://deliveroo.co.uk/menu/Manchester/editions-ordsall/proovegan-editions-sal?day=today&geohash=gcqrg7xdxvft&time=1645,"Unit 10, Foundry, Ordsall Lane, Manchester, M53AN",53.46888407,-2.276106101
Burger King ,Cambridge,cambridge-editions,https://deliveroo.co.uk/menu/Cambridge/cambridge-editions/burger-king-editions-cam?day=today&geohash=u12152k2dw2m&time=ASAP,"Deliveroo Editions, Unit 3-4 Restwell House, Coldham's Road, Cambridge, CB13EW",52.20846328,0.148703598
Pasta Evangelists,Cambridge,cambridge-south,https://deliveroo.co.uk/menu/Cambridge/cambridge-south/pasta-evangelists-editions-cam?day=today&geohash=u12152k2dw2m&time=ASAP,"230 Mill Rd, Cambridge, Cambridge, CB13NF",52.1973277,0.1454066
Dishoom,Cambridge,cambridge-editions,https://deliveroo.co.uk/menu/Cambridge/cambridge-editions/dishoom-editions-cam?day=today&geohash=u12152k2dw2m&time=ASAP,"Unit 3-4 Restwell House, Coldham's Road, Cambridge, CB13EW",52.20846328,0.148703598
Poke Fuzion,Cambridge,cambridge-editions,https://deliveroo.co.uk/menu/Cambridge/cambridge-editions/poke-fuzion-editions-cam?day=today&geohash=u12152k2dw2m&time=ASAP,"Unit 3-4 Restwell House, Coldham's Road, Cambridge, CB13EW",52.20846328,0.148703598
Nomi Katsu,Cambridge,cambridge-editions,https://deliveroo.co.uk/menu/Cambridge/cambridge-editions/nomi-katsu-editions-cam-new?day=today&geohash=u12152k2dw2m&time=ASAP,"Unit 3-4 Restwell House, Coldham's Road, Cambridge, CB13EW",52.20846328,0.148703598
Zumuku,Cambridge,cambridge-editions,https://deliveroo.co.uk/menu/Cambridge/cambridge-editions/zumu-editions-cam?day=today&geohash=u12152k2dw2m&time=ASAP,"Unit 3-4 Restwell House, Cambridge, CB13EW",52.20846328,0.148703598
Trip CBD Store,Cambridge,cambridge-editions,https://deliveroo.co.uk/menu/Cambridge/cambridge-editions/trip-cbd-store-editions-cam?day=today&geohash=u12152k2dw2m&time=ASAP,"Unit 3-4 Restwell House, Coldham's Road, Cambridge, CB13EW",52.20846328,0.148703598
Ice Cream Store,Cambridge,cambridge-editions,https://deliveroo.co.uk/menu/Cambridge/cambridge-editions/ics-editions-cambridge-new?day=today&geohash=u12152k2dw2m&time=ASAP,"Unit 3-4 Restwell House, Coldham's Road, Cambridge, CB13EW",52.20846328,0.148703598
Ben & Jerry's Store ,Cambridge,cambridge-editions,https://deliveroo.co.uk/menu/Cambridge/cambridge-editions/ben-and-jerrys-store-editions-cam?day=today&geohash=u12152k2dw2m&time=ASAP,"Unit 3-4 Restwell House, Coldham's Road, Cambridge, CB13EW",52.20846328,0.148703598
Forketta,Cambridge,cambridge-editions,https://deliveroo.co.uk/menu/Cambridge/cambridge-editions/barilla-editions-cam?geohash=u12152k2dw2m,"Unit 3-4 Restwell House, Coldhams Road, Cambridge, CB13EW",52.20846328,0.148703598
Ben & Jerry's Store,London,blackwall,https://deliveroo.co.uk/menu/London/blackwall/ben-and-jerrys-store-editions-blw?geohash=u10j05846jny,"Blackwall Car Park, Prestage Way, London, E149QE",51.5079378,-0.0071843
Lolo Poke,London,blackwall,https://deliveroo.co.uk/menu/London/blackwall/lolo-poke-editions-blw?geohash=u10j05846jny,"Blackwall, London, E149QE",51.5079378,-0.0071843
WINGÂ·STOP,Edinburgh,new-town,https://deliveroo.co.uk/menu/Edinburgh/new-town/wingstop-edinburgh?day=today&geohash=gcvwr4jytdk9&time=ASAP,"Wingstop, Unit C1. 31, Leith Street Eats Level 1, St James Centre, Edinburgh, Edinburgh, EH13SR",55.95458817,-3.188241713
Luxford Burgers,Edinburgh,broughton,https://deliveroo.co.uk/menu/Edinburgh/broughton/luxford-burgers-picardy-place?day=today&geohash=gcvwr4jytdk9&time=ASAP,"Unit 6, 25 Beaverhall Road, Edinburgh, EH74JE",55.96519075,-3.192487008
Bulked â€“ Loaded Fries,Edinburgh,broughton,https://deliveroo.co.uk/menu/Edinburgh/broughton/bulked-loaded-fries-edn?day=today&geohash=gcvwr4jytdk9&time=ASAP,"Unit 6, 25 Beaverhall Road, Edinburgh, EH74JE",55.96519075,-3.192487008
Sabor,Edinburgh,broughton,https://deliveroo.co.uk/menu/Edinburgh/broughton/sabor-latin-american-edn?day=today&geohash=gcvwr4jytdk9&time=ASAP,"Unit 6, 25 Beaverhall Road, Edinburgh, EH74JE",55.96519075,-3.192487008
WINGSTOP,London,jubilee-park-lee-valley,https://deliveroo.co.uk/menu/London/jubilee-park-lee-valley/wingstop-enfield-dk?day=today&geohash=gcpvybj0n01b&time=ASAP,"Unit 6 Great Cambridge Industrial Estate Lincoln Road, London, EN11SH",51.64324112,-0.058219486
Bronsonâ€™s Burgers,London,jubilee-park-lee-valley,https://deliveroo.co.uk/menu/London/jubilee-park-lee-valley/bronsons-burgers-editions-plg?day=today&geohash=gcpvybj0n01b&time=ASAP,"Unit 6, Great Cambridge Industrial Estate, London, EN11SH",51.6429737,-0.057772191
Mindful Chef ,London,jubilee-park-lee-valley,https://deliveroo.co.uk/menu/London/jubilee-park-lee-valley/mindful-chef-editions-plg?day=today&geohash=gcpvybj0n01b&time=ASAP,"Unit 6, Great Cambridge Industrial Estate, London, EN11SH",51.6429737,-0.057772191
TRIP CBD Store ,London,jubilee-park-lee-valley,https://deliveroo.co.uk/menu/London/jubilee-park-lee-valley/trip-cbd-store-editions-plg?day=today&geohash=gcpvybj0n01b&time=ASAP,"Unit 6, Great Cambridge Industrial Estate Lincoln Road, London, EN11SH",51.6429737,-0.057772191
WINGÂ·STOP,Glasgow,glasgow-editions,https://deliveroo.co.uk/menu/Glasgow/glasgow-editions/wingstop-editions-glg?day=today&geohash=gcuvwzjhqpyr&time=ASAP,"1-3 Scotland Street, Glasgow, G58JY",55.8498196,-4.2771164
The Poke Shack ,Glasgow,glasgow-editions,https://deliveroo.co.uk/menu/Glasgow/glasgow-editions/poke-shack-editions-glg?day=today&geohash=gcuvwzjhqpyr&time=ASAP,"1-3 Scotland Street, Glasgow, G58NB",55.8498196,-4.2771164
Luxford Burgers,Glasgow,glasgow-editions,https://deliveroo.co.uk/menu/Glasgow/glasgow-editions/luxford-burgers-editions-glg?day=today&geohash=gcuvwzjhqpyr&time=ASAP,"1-3 Scotland Street, Glasgow, G58NB",55.8498196,-4.2771164
The Athenian,Glasgow,glasgow-editions,https://deliveroo.co.uk/menu/Glasgow/glasgow-editions/the-athenian-editions-glasgow?day=today&geohash=gcuvwzjhqpyr&time=ASAP,"1-3 Scotland Street, Glasgow, G58NB",55.8498196,-4.2771164
The Athenian,Glasgow,glasgow-editions,https://deliveroo.co.uk/menu/Glasgow/glasgow-editions/the-athenian-plant-based-editions-glasgow?day=today&geohash=gcuvwzjhqpyr&time=ASAP,"1-3 Scotland Street, Glasgow, G58NB",55.8498196,-4.2771164
Mindful Chef,Glasgow,glasgow-editions,https://deliveroo.co.uk/menu/Glasgow/glasgow-editions/mindful-chef-editions-glg?day=today&geohash=gcuvwzjhqpyr&time=ASAP,"1-3 Scotland Street, Glasgow, G58NB",55.8498196,-4.2771164
Sabor,Glasgow,glasgow-editions,https://deliveroo.co.uk/menu/Glasgow/glasgow-editions/sabor-editions-glg?day=today&geohash=gcuvwzjhqpyr&time=ASAP,"1 Scotland Street, Glasgow, G58NB",55.8498196,-4.2771164
Bulked - Loaded Fries,Glasgow,glasgow-editions,https://deliveroo.co.uk/menu/Glasgow/glasgow-editions/bulked-editions-glg?day=today&geohash=gcuvwzjhqpyr&time=ASAP,"1 Scotland Street, Glasgow, G58NB",55.8498196,-4.2771164
Sprigg - Ingram Street,Glasgow,glasgow-city-centre,https://deliveroo.co.uk/menu/Glasgow/glasgow-city-centre/sprigg-ingram-st?geohash=gcuvwzjhqpyr,"241 Ingram St, Glasgow, G11DA",55.8599197,-4.2498102
Pho,London,brent-cross-editions,https://deliveroo.co.uk/menu/London/brent-cross-editions/pho-editions-brc?day=today&geohash=gcpv6q00zbdh&time=1630,"Phoenix Park, Apsley Way, Unit 2, London, NW27LN",51.56714327,-0.238109253
WINGÂ·STOP,Leeds,editions-in-leeds,https://deliveroo.co.uk/menu/Leeds/editions-in-leeds/wingstop-editions-chr?day=today&geohash=gcwfhugpwsj5&time=ASAP,"Unit 1, Scott Hall Mills, Scotthall Street, Leeds, LS72HR",53.8163979,-1.544345
Bulked Loaded Fries,Leeds,editions-in-leeds,https://deliveroo.co.uk/menu/Leeds/editions-in-leeds/bulked-editions-lee?day=today&geohash=gcwfhugpwsj5&time=ASAP,"Unit 1, Scott Hall Mills, Scotthall Street, Leeds, LS72HT",53.8163979,-1.544345
The Athenian,Leeds,editions-in-leeds,https://deliveroo.co.uk/menu/Leeds/editions-in-leeds/the-athenian-editions-chr?day=today&geohash=gcwfhugpwsj5&time=ASAP,"Unit 1, Scott Halls Mills, Leeds, LS72HR",53.8163979,-1.544345
Zumuku Sushi,Leeds,editions-in-leeds,https://deliveroo.co.uk/menu/Leeds/editions-in-leeds/zumu-editions-chr?day=today&geohash=gcwfhugpwsj5&time=ASAP,"Unit 1, Scott Halls Mills, Leeds, LS72HR",53.8163979,-1.544345
Nomi Katsu,Leeds,editions-in-leeds,https://deliveroo.co.uk/menu/Leeds/editions-in-leeds/nomi-katsu-editions-chr?day=today&geohash=gcwfhugpwsj5&time=ASAP,"Unit 1, Scott Halls Mills, Leeds, LS72HR",53.8163979,-1.544345
Poke Fuzion,Leeds,editions-in-leeds,https://deliveroo.co.uk/menu/Leeds/editions-in-leeds/poke-fuzion-editions-chr?day=today&geohash=gcwfhugpwsj5&time=ASAP,"Unit 1, Scott Halls Mills, Leeds, LS72HR",53.8163979,-1.544345
Pasta Evangelists ,Leeds,wortley,https://deliveroo.co.uk/menu/Leeds/wortley/pasta-evangelists-leeds?day=today&geohash=gcwfhugpwsj5&time=ASAP,"Jacuna Kitchens, Wortley Moor Road, Leeds, LS124JF",53.79263773,-1.597872801
Luxford Burgers,Leeds,editions-in-leeds,https://deliveroo.co.uk/menu/Leeds/editions-in-leeds/luxford-burgers-editions-lee?day=today&geohash=gcwfhugpwsj5&time=ASAP,"Unit 1, Scott Hall Mills, Scotthall Street, Leeds, LS72HT",53.8163979,-1.544345
Sabor,Leeds,editions-in-leeds,https://deliveroo.co.uk/menu/Leeds/editions-in-leeds/sabor-editions-lee?day=today&geohash=gcwfhugpwsj5&time=ASAP,"Unit 1, Scott Hall Mills, Scotthall Street, Leeds, LS72HT",53.8163979,-1.544345
The Athenian,Leeds,editions-in-leeds,https://deliveroo.co.uk/menu/Leeds/editions-in-leeds/the-athenian-plant-based-editions-chr?day=today&geohash=gcwfhugpwsj5&time=ASAP,"Unit 1, Scott Halls Mills, Leeds, LS72HR",53.8163979,-1.544345
Remeo Gelato,Leeds,editions-in-leeds,https://deliveroo.co.uk/menu/Leeds/editions-in-leeds/remeo-gelato-editions-chr?day=today&geohash=gcwfhugpwsj5&time=ASAP,"Rear Ground Floor Warehouse, Scott Hall Street, Leeds, LS72HR",53.8163979,-1.544345
Ben & Jerry's Store,Leeds,editions-in-leeds,https://deliveroo.co.uk/menu/Leeds/editions-in-leeds/ben-and-jerrys-store-editions-chr?day=today&geohash=gcwfhugpwsj5&time=ASAP,"Unit 1, Scott Hall Street, Leeds, LS72HR",53.8163979,-1.544345
Fuji Bento	,Leeds,editions-in-leeds,https://deliveroo.co.uk/menu/Leeds/editions-in-leeds/fuji-bento-editions-chr?day=today&geohash=gcwfhugpwsj5&time=ASAP,"Unit 1, Scott Halls Mills, Leeds, LS72HR",53.8163979,-1.544345
Noodle Inn,Leeds,editions-in-leeds,https://deliveroo.co.uk/menu/Leeds/editions-in-leeds/noodles-inn-editions-chr?day=today&geohash=gcwfhugpwsj5&time=1615,"Unit 1, Scott Halls Mills, Leeds, LS72HT",53.8163979,-1.544345
Proove Pizza,Leeds,editions-in-leeds,https://deliveroo.co.uk/menu/Leeds/editions-in-leeds/proove-ltd?day=today&geohash=gcwfhugpwsj5&time=1615,"Unit 1, Scott Halls Mills, Leeds, LS72HT",53.8163979,-1.544345
Twisted Kimchi,Leeds,editions-in-leeds,https://deliveroo.co.uk/menu/Leeds/editions-in-leeds/twisted-kimchi-editions-chr?day=today&geohash=gcwfhugpwsj5&time=1615,"Unit 1, Scott Halls Mills, Leeds, LS72HR",53.8163979,-1.544345
Lower East Side New York Style Pizza,Leeds,editions-in-leeds,https://deliveroo.co.uk/menu/Leeds/editions-in-leeds/lower-east-side-editions-chr?day=today&geohash=gcwfhugpwsj5&time=1615,"Leeds Editions, Unit 3, Scott Halls Mills, Leeds, LS72HR",53.8163979,-1.544345
Awesome Chinese,Leeds,editions-in-leeds,https://deliveroo.co.uk/menu/Leeds/editions-in-leeds/awesome-chinese-editions-chr?day=today&geohash=gcwfhugpwsj5&time=1615,"Unit 1,Scott Halls Mills, Leeds, Leeds, LS72HR",53.8163979,-1.544345
Mr Miyagi Ramen & Udon,Leeds,editions-in-leeds,https://deliveroo.co.uk/menu/Leeds/editions-in-leeds/mr-miyagi-ramen-and-bao-editions-chr?day=today&geohash=gcwfhugpwsj5&time=1615,"Unit 1, Scott Halls Mills, Leeds, LS72HT",53.8163979,-1.544345
Meatless Miyagi	,Leeds,editions-in-leeds,https://deliveroo.co.uk/menu/Leeds/editions-in-leeds/meatless-miyagi-editions-chr?day=today&geohash=gcwfhugpwsj5&time=1630,"Unit 1, Scott Halls Mills, Leeds, LS72HR",53.8163979,-1.544345
Noodle Inn Vegetarian,Leeds,editions-in-leeds,https://deliveroo.co.uk/menu/Leeds/editions-in-leeds/noodle-inn-vegetarian-editions-chr?day=today&geohash=gcwfhugpwsj5&time=1630,"Unit 1, Scott Halls Mills, Leeds, LS72HR",53.8163979,-1.544345
Wings 'n Ribs in Wok,Leeds,editions-in-leeds,https://deliveroo.co.uk/menu/Leeds/editions-in-leeds/awesome-wings-editions-chr?day=today&geohash=gcwfhugpwsj5&time=1630,"Unit 1, Scott Halls Mills,Leeds, Leeds, LS72HR",53.8163979,-1.544345
PROOVegan,Leeds,editions-in-leeds,https://deliveroo.co.uk/menu/Leeds/editions-in-leeds/proovegan-editions-chr?day=today&geohash=gcwfhugpwsj5&time=1615,"Unit 3, Scott Hall Mills, Leeds, LS72HR",53.8163979,-1.544345
WINGÂ·STOP,Manchester,editions-ordsall,https://deliveroo.co.uk/menu/Manchester/editions-ordsall/wingstop-manchester-dk?day=today&geohash=gcw2hjwsdbgp&time=ASAP,"Unit 10, Foundry Business Park, Ordsall Lane, Salford, Manchester, M53AN, Manchester, M53AN",53.46888407,-2.276106101
Zumuku Sushi,Manchester,editions-ordsall,https://deliveroo.co.uk/menu/Manchester/editions-ordsall/zumu-editions?day=today&geohash=gcw2hjwsdbgp&time=ASAP,"Salford Editions Unit 10, Manchester, Manchester, M53AN",53.46888407,-2.276106101
Buns and Wings,Manchester,editions-ordsall,https://deliveroo.co.uk/menu/Manchester/editions-ordsall/buns-and-wings-editions-sal?geohash=gcw2hjwsdbgp,"Salford Editions Unit 10, Foundry Business Park,Ordsall Lane, Salford, Manchester, M53AN",53.46888407,-2.276106101
The Athenian,Nottingham,nottingham-editions,https://deliveroo.co.uk/menu/Nottingham/nottingham-editions/the-athenian-editions-ntg?day=today&geohash=gcrjm0h9b43k&time=ASAP,"1 Redwood Court, Faraday Road, Nottingham, NG72BQ",52.95402989,-1.181565617
Luxford Burgers,Nottingham,nottingham-editions,https://deliveroo.co.uk/menu/Nottingham/nottingham-editions/luxford-burgers-editions-ntg?day=today&geohash=gcrjm0h9b43k&time=ASAP,"Unit 1,Redwood Court, Salisbury Street, Nottingham, NG72BQ",52.95402989,-1.181565617
Pasta Evangelists,Nottingham,nottingham-city-centre,https://deliveroo.co.uk/menu/Nottingham/nottingham-city-centre/pasta-evangelists-editions-ntg?day=today&geohash=gcrjm0h9b43k&time=ASAP,"100 Alfreton Rd, Radford, Nottingham NG7 3NS, Nottingham, NG73NS",52.9579182,-1.165508971
Bulked,Nottingham,nottingham-editions,https://deliveroo.co.uk/menu/Nottingham/nottingham-editions/bulked-editions-ntg?day=today&geohash=gcrjm0h9b43k&time=ASAP,"Unit 1, Redwood Court, Salisbury Street, Nottingham, NG72BQ",52.95402989,-1.181565617
The Athenian,Nottingham,nottingham-editions,https://deliveroo.co.uk/menu/Nottingham/nottingham-editions/the-athenian-plant-based-editions-ntg?day=today&geohash=gcrjm0h9b43k&time=ASAP,"1 Redwood Court, Faraday Road, Nottingham, NG72BQ",52.95402989,-1.181565617
Sabor,Nottingham,nottingham-editions,https://deliveroo.co.uk/menu/Nottingham/nottingham-editions/sabor-editions-ntg?day=today&geohash=gcrjm0h9b43k&time=ASAP,"Unit 1,Redwood Court, Salisbury Street, Nottingham, NG72BQ",52.95402989,-1.181565617
TRIP CBD Store ,Nottingham,nottingham-editions,https://deliveroo.co.uk/menu/Nottingham/nottingham-editions/trip-cbd-store-editions-ntg?day=today&geohash=gcrjm0h9b43k&time=ASAP,"Unit 1, Redwood Court, Salisbury Street, Nottingham, NG72BQ",52.95402989,-1.181565617
Ben & Jerry's Store,Nottingham,nottingham-editions,https://deliveroo.co.uk/menu/Nottingham/nottingham-editions/ben-and-jerrys-store-editions-ntg?day=today&geohash=gcrjm0h9b43k&time=ASAP,"1 Redwood Court, Faraday Road, Nottingham, NG72BQ",52.95402989,-1.181565617
WAWIN Vegan Chinese,Nottingham,nottingham-editions,https://deliveroo.co.uk/menu/Nottingham/nottingham-editions/wawin-vegan-chinese-editions-ntg?day=today&geohash=gcrjm0h9b43k&time=1645,"1 Redwood Court, Salisbury Street, Nottingham, NG72BQ",52.95402989,-1.181565617
Noodle Inn,Nottingham,nottingham-editions,https://deliveroo.co.uk/menu/Nottingham/nottingham-editions/noodle-inn-editions-ntg?day=today&geohash=gcrjm0h9b43k&time=1715,"1 Redwood Court, Salisbury Street, Nottingham, NG72BQ",52.95402989,-1.181565617
Zumuku Sushi	,Nottingham,nottingham-editions,https://deliveroo.co.uk/menu/Nottingham/nottingham-editions/zumu-editions-ntg?day=today&geohash=gcrjm0h9b43k&time=1530,"1 Redwood Court, Faraday Road, Nottingham, NG72BQ",52.95402989,-1.181565617
Nomi Katsu ðŸ‡¯ðŸ‡µ	,Nottingham,nottingham-editions,https://deliveroo.co.uk/menu/Nottingham/nottingham-editions/nomi-katsu-editions-ntg?day=today&geohash=gcrjm0h9b43k&time=1515,"1 Redwood Court, Faraday Road, Nottingham, NG72BQ",52.95402989,-1.181565617
Awesome Chinese,Nottingham,nottingham-editions,https://deliveroo.co.uk/menu/Nottingham/nottingham-editions/awesome-chinese-editions-ntg?day=today&geohash=gcrjm0h9b43k&time=1715,"1 Redwood Court,Faraday Road, Nottingham, Nottingham, NG72BQ",52.95402989,-1.181565617
La Mei Zi Dim Sum and Sichuan Kitchen,Nottingham,nottingham-editions,https://deliveroo.co.uk/menu/Nottingham/nottingham-editions/la-mei-zi-editions-ntg?day=today&geohash=gcrjm0h9b43k&time=1730,"1 Redwood Court, Salisbury Street, Nottingham, NG72BQ",52.95402989,-1.181565617
Poke Fuzion,Nottingham,nottingham-editions,https://deliveroo.co.uk/menu/Nottingham/nottingham-editions/poke-fuzion-editions-ntg?day=today&geohash=gcrjm0h9b43k&time=1515,"1 Redwood Court, Faraday Road, Nottingham, NG72BQ",52.95402989,-1.181565617
Katsu ,Nottingham,nottingham-editions,https://deliveroo.co.uk/menu/Nottingham/nottingham-editions/katsu-editions-ntg?day=today&geohash=gcrjm0h9b43k&time=1715,"1 Redwood Court, Faraday Road, Nottingham, NG72BQ",52.95402989,-1.181565617
Twisted Kimchi ,Nottingham,nottingham-editions,https://deliveroo.co.uk/menu/Nottingham/nottingham-editions/twisted-kimchi-editions-ntg?geohash=gcrjm0h9b43k,"1 Redwood Court, Faraday Road, Nottingham, NG72BQ",52.95402989,-1.181565617
Miyagi Bento and Donburi,Nottingham,nottingham-editions,https://deliveroo.co.uk/menu/Nottingham/nottingham-editions/miyagi-bento-and-donburi-editions-ntg?geohash=gcrjm0h9b43k,"1 Redwood Court, Faraday Road, Nottingham, NG72BQ",52.95402989,-1.181565617
Pasta Evangelists,Reading,reading-editions,https://deliveroo.co.uk/menu/Reading/reading-editions/pasta-evangelists-editions-rea?day=today&geohash=gcpkc8mnhkx1&time=ASAP,"49 Milford Road, Reading, RG18LG",51.46258518,-0.981253707
Pasta Evangelists,Birmingham,birmingham-city-centre,https://deliveroo.co.uk/menu/Birmingham/birmingham-city-centre/pasta-evangelists-birmingham?day=today&geohash=gcqdsf1b8mmx&time=ASAP,"50 St George's Street, Birmingham, B193QU",52.48966706,-1.901911113
Poke Shack,Brighton,brighton-and-hove-editions,https://deliveroo.co.uk/menu/Brighton/brighton-and-hove-editions/poke-shack-editions-bnc?day=today&geohash=gcpc5qr687x2&time=ASAP,"Editions, Unit 1, Saxon Works, Olive Road, Hove, Brighton, BN35LE",50.8354816,-0.198570102
The Athenian,Brighton,brighton-and-hove-editions,https://deliveroo.co.uk/menu/Brighton/brighton-and-hove-editions/the-athenian-editions-bnc-new?day=today&geohash=gcpc5qr687x2&time=ASAP,"Unit 1 Saxon Works, Olive Road, Hove, Brighton, BN35LE",50.8354816,-0.198570102
Dishoom,Brighton,brighton-and-hove-editions,https://deliveroo.co.uk/menu/Brighton/brighton-and-hove-editions/dishoom-editions-bnc?day=today&geohash=gcpc5qr687x2&time=ASAP,"Editions, Unit 1, Saxon Works, Olive Road, Hove, Brighton, BN35LE",50.8354816,-0.198570102
Pokai,Brighton,brighton-centre,https://deliveroo.co.uk/menu/Brighton/brighton-centre/pokai-brighton?day=today&geohash=gcpc5qr687x2&time=ASAP,"169 North street, Brighton, BN11EA",50.8223925,-0.1392495
Mindful Chef ,Brighton,brighton-and-hove-editions,https://deliveroo.co.uk/menu/Brighton/brighton-and-hove-editions/mindful-chef-editions-bnc?day=today&geohash=gcpc5qr687x2&time=ASAP,"Unit 1, Saxon Works, Olive Road, Brighton, BN35LE",53.8163979,-1.544345
TRIP CBD Store	,Brighton,brighton-and-hove-editions,https://deliveroo.co.uk/menu/Brighton/brighton-and-hove-editions/trip-cbd-store-editions-bnc?day=today&geohash=gcpc5qr687x2&time=ASAP,"Unit 1 Saxon Works, Olive Road, Hove, Brighton, BN35LE",50.8354816,-0.198570102
The Athenian,Brighton,brighton-and-hove-editions,https://deliveroo.co.uk/menu/Brighton/brighton-and-hove-editions/the-athenian-plant-based-editions-bnc-new?day=today&geohash=gcpc5qr687x2&time=ASAP,"Unit 1 Saxon Works, Olive Road, Hove, Brighton, BN35LE",50.8354816,-0.198570102
VIP Very Italian Pizza,Brighton,brighton-and-hove-editions,https://deliveroo.co.uk/menu/Brighton/brighton-and-hove-editions/vip-italy-limited-hove?day=today&geohash=gcpc5qr687x2&time=1715,"1 Saxon Works, Olive Road, Brighton, BN35LE",50.8354816,-0.198570102
Oowee Diner,Bristol,bristol-editions-site,https://deliveroo.co.uk/menu/Bristol/bristol-editions-site/oowee-diner-editions-brs?day=today&geohash=gcnhvd602txg&time=ASAP,"Unit 1, Glenfrome House, Bristol, BS56XX",51.4785946,-2.5613584
Kokoro: Chicken katsu & sushi,Bristol,bristol-editions-site,https://deliveroo.co.uk/menu/Bristol/bristol-editions-site/kokoro-editions-bristol?day=today&geohash=gcnhvd602txg&time=ASAP,"Unit 1, Glenfrome House, Bristol, BS56XX",51.4785946,-2.5613584
WINGÂ·STOP,Bristol,bristol-editions-site,https://deliveroo.co.uk/menu/Bristol/bristol-editions-site/wingstop-editions-brs?day=today&geohash=gcnhvd602txg&time=ASAP,"Unit 1 Glenfrome Road, Bristol, BS56XX",51.4785946,-2.5613584
The Athenian,Bristol,bristol-editions-site,https://deliveroo.co.uk/menu/Bristol/bristol-editions-site/the-athenian-editions-brs?day=today&geohash=gcnhvd602txg&time=ASAP,"Unit 1, Glenfrome House, Bristol, Bristol, BS56XX",51.4785946,-2.5613584
Sushi Shop,Bristol,bristol-editions-site,https://deliveroo.co.uk/menu/Bristol/bristol-editions-site/sushi-shop-editions-brs?day=today&geohash=gcnhvd602txg&time=ASAP,"Unit 1 Glenfrome House, Bristol, BS56XX",51.4785946,-2.5613584
Pasta Evangelists ,Bristol,montpelier-station,https://deliveroo.co.uk/menu/Bristol/montpelier-station/pasta-evangelists-editions-brs?day=today&geohash=gcnhvd602txg&time=ASAP,"196 Cheltenham Rd, Cotham, Bristol BS6 5RB, Bristol, BS65RB",51.46837416,-2.592006141
Koh Thai,Bristol,bristol-editions-site,https://deliveroo.co.uk/menu/Bristol/bristol-editions-site/koh-thai-editions-brs?day=today&geohash=gcnhvd602txg&time=ASAP,"Unit 1, Glenfrome House, Bristol,, Bristol, BS56XX",51.4785946,-2.5613584
Zumuku,Bristol,bristol-editions-site,https://deliveroo.co.uk/menu/Bristol/bristol-editions-site/zumu-editions-brs?day=today&geohash=gcnhvd602txg&time=ASAP,"Unit 1, Glenfrome House, Bristol, BS56XX",51.4785946,-2.5613584
Pokai,Bristol,bristol-editions-site,https://deliveroo.co.uk/menu/Bristol/bristol-editions-site/pokai-editions-brs?day=today&geohash=gcnhvd602txg&time=ASAP,"House Unit 1 Glenfrome Road, Bristol, BS56XX",51.4785946,-2.5613584
Nomi Katsu,Bristol,bristol-editions-site,https://deliveroo.co.uk/menu/Bristol/bristol-editions-site/nomi-katsu-editions-brs?day=today&geohash=gcnhvd602txg&time=ASAP,"Unit 1 Glenfrome House, Bristol, BS56XX",51.4785946,-2.5613584
Poke Fusion,Bristol,bristol-editions-site,https://deliveroo.co.uk/menu/Bristol/bristol-editions-site/poke-fusion-editions-brs?day=today&geohash=gcnhvd602txg&time=ASAP,"Unit 1, Glenfrome House, Bristol, BS56XX",51.4785946,-2.5613584
The Athenian,Bristol,bristol-editions-site,https://deliveroo.co.uk/menu/Bristol/bristol-editions-site/the-athenian-plant-based-editions-brs?day=today&geohash=gcnhvd602txg&time=ASAP,"Unit 1, Glenfrome House, Bristol, BS56XX",51.4785946,-2.5613584
TRIP CBD Store,Bristol,bristol-editions-site,https://deliveroo.co.uk/menu/Bristol/bristol-editions-site/trip-cbd-store-editions-brs?day=today&geohash=gcnhvd602txg&time=ASAP,"Unit 1, Glenfrome House, Bristol, BS56XX",51.4785946,-2.5613584
Mindful Chef,Bristol,bristol-editions-site,https://deliveroo.co.uk/menu/Bristol/bristol-editions-site/mindful-chef-editions-brs?day=today&geohash=gcnhvd602txg&time=ASAP,"Unit 1, Glenfrome House, Bristol, BS56XX",51.4785946,-2.5613584
Alcohol Delivery London- Park Lane,London,fish-island-area,https://deliveroo.co.uk/menu/London/fish-island-area/bow-road-express,"Wick Lane, London, E32JG",51.535643,-0.0219653
TRIP CBD Store,London,balham,https://deliveroo.co.uk/menu/london/balham/trip-cbd-store-balham,"25 Mitcham Lane, London, SW166LQ",51.42783871,-0.133068823
Saucybird,London,windsor-and-eton,https://deliveroo.co.uk/menu/London/windsor-and-eton/saucybird/,"1 Castle Hill, London, SL41PD",51.48249872,-0.607392971
Ben & Jerry's Store,London,swiss-cottage-editions,https://deliveroo.co.uk/menu/London/swiss-cottage-editions/ben-and-jerrys-store-editions-bel,"Rear Unit, 115 Finchley Road, Swiss Cottage, London, NW36HY",51.54295923,-0.175345254
YUN Restaurant,London,mornington-crescent-south,https://deliveroo.co.uk/menu/London/mornington-crescent-south/yun-restaurant-east-central,"14-16 Camden high Street, London, London, NW10JH",51.53518171,-0.13875864
Fit Food,London,white-city-estate,https://deliveroo.co.uk/menu/London/white-city-estate/fit-food-white-city,"Unit 5, Media Works Building, Wood Lane, London, W127TP",51.51347865,-0.227783671
TRIP CBD Store,London,south-acton,https://deliveroo.co.uk/menu/london/south-acton/trip-cbd-store-chiswick,"6A Greenock Road, Chiswick Park, London, W38DU",51.49848149,-0.272528549
Halloween Pies,Manchester,salford-crescent,https://deliveroo.co.uk/menu/Manchester/salford-crescent/halloween-pies-pr-activation-man,"Unit 10, Foundry Business Park, Ordsall Lane, Salford, Manchester, M53AN",53.46888407,-2.276106101
The Snacking & Breakfast Store,Manchester,salford-crescent,https://deliveroo.co.uk/menu/Manchester/salford-crescent/kelloggs-snacking-store,"Unit 10, Foundry, Ordsall Lane, Manchester, M53AN",53.46888407,-2.276106101
Lost Boys Chicken @ The Joker - Preston,Brighton,round-hill,https://deliveroo.co.uk/menu/Brighton/round-hill/lost-boys-chicken,"The Joker, 2 Preston Road, Brighton, BN14QF",50.83385368,-0.139025655
Saucybird,Brighton,round-hill,https://deliveroo.co.uk/menu/Brighton/round-hill/saucybird-brighton,"52-53 London Road, Brighton, BN14JX",50.83228175,-0.137680829
The Great British Cheesecake Company,London,canning-town-editions,https://deliveroo.co.uk/menu/London/canning-town-editions/the-great-british-cheesecake-company-editions-blw?day=today&geohash=gcpvpqp8znt2&time=ASAP,"Prestage Way Car Park, Editions, Blackwall, London, E149QE",51.5086128,-0.006668344
Pho,London,bsy-2-editions,https://deliveroo.co.uk/menu/London/bsy-2-editions/pho-editions-ber?day=today&geohash=gcpuysr6ce42&time=ASAP,"145 Ormside Street, London, SE151TF",51.4831068,-0.0556266
Remeo Gelato,Nottingham,nottingham-editions,https://deliveroo.co.uk/menu/Nottingham/nottingham-editions/remeo-gelato-editions-ntg?day=today&geohash=gcrjm0h9b43k&time=ASAP,"1 Redwood Court, Faraday Road, Nottingham, NG72BQ",52.95402989,-1.181565617
